CCSDS_OEM_VERS = 1.0
CREATION_DATE  = 2017-05-11T11:00:57
ORIGINATOR     = GMAT USER

META_START
OBJECT_NAME          = MOPSSat_alt_35785_km_RAAN_0_069
OBJECT_ID            = SatId
CENTER_NAME          = Earth
REF_FRAME            = EME2000
TIME_SYSTEM          = UTC
START_TIME           = 2017-01-01T00:00:00.000
USEABLE_START_TIME   = 2017-01-01T00:00:00.000
USEABLE_STOP_TIME    = 2017-01-02T00:00:00.000
STOP_TIME            = 2017-01-02T00:00:00.000
INTERPOLATION        = Lagrange
INTERPOLATION_DEGREE = 7 
META_STOP


                                                                                   

2017-01-01T08:05:50.000  -2.228968498769636e+04   3.581335556171377e+04   3.126330918201431e-01  -2.610620202780240e+00  -1.621715668992792e+00   4.726870113709284e-05
2017-01-01T08:06:00.000  -2.231578526945491e+04   3.579712889728630e+04   3.131058888484868e-01  -2.609435865706279e+00  -1.623617039596621e+00   4.729069908607180e-05
2017-01-01T08:06:10.000  -2.234187370117313e+04   3.578088322332489e+04   3.135789057260069e-01  -2.608250145083389e+00  -1.625517544437701e+00   4.731267006241155e-05
2017-01-01T08:06:20.000  -2.236795026874119e+04   3.576461854866643e+04   3.140521421777776e-01  -2.607063041558297e+00  -1.627417182491095e+00   4.733461403701021e-05
2017-01-01T08:06:30.000  -2.239401495812874e+04   3.574833488211175e+04   3.145255979299196e-01  -2.605874555775095e+00  -1.629315952737662e+00   4.735653098084731e-05
2017-01-01T08:06:40.000  -2.242006775525216e+04   3.573203223250912e+04   3.149992727071797e-01  -2.604684688381325e+00  -1.631213854154383e+00   4.737842086486746e-05
2017-01-01T08:06:50.000  -2.244610864656260e+04   3.571571060838643e+04   3.154731662436198e-01  -2.603493440001148e+00  -1.633110885757199e+00   4.740028366048866e-05
2017-01-01T08:07:00.000  -2.247213761845785e+04   3.569937001831888e+04   3.159472782719300e-01  -2.602300811262162e+00  -1.635007046558171e+00   4.742211933909368e-05
2017-01-01T08:07:10.000  -2.249815465741553e+04   3.568301047084609e+04   3.164216085258417e-01  -2.601106802789369e+00  -1.636902335575177e+00   4.744392787214760e-05
2017-01-01T08:07:20.000  -2.252415974965456e+04   3.566663197468143e+04   3.168961567340143e-01  -2.599911415220444e+00  -1.638796751807251e+00   4.746570923089749e-05
2017-01-01T08:07:30.000  -2.255015288138690e+04   3.565023453855737e+04   3.173709226245655e-01  -2.598714649194449e+00  -1.640690294252930e+00   4.748746338659994e-05
2017-01-01T08:07:40.000  -2.257613403881701e+04   3.563381817122445e+04   3.178459059250830e-01  -2.597516505351761e+00  -1.642582961910201e+00   4.750919031051468e-05
2017-01-01T08:07:50.000  -2.260210320789358e+04   3.561738288161162e+04   3.183211063580298e-01  -2.596316984345767e+00  -1.644474753758426e+00   4.753088997371269e-05
2017-01-01T08:08:00.000  -2.262806037464452e+04   3.560092867861124e+04   3.187965236469223e-01  -2.595116086827182e+00  -1.646365668782744e+00   4.755256234734087e-05
2017-01-01T08:08:10.000  -2.265400552504229e+04   3.558445557116507e+04   3.192721575138537e-01  -2.593913813450319e+00  -1.648255705964255e+00   4.757420740251437e-05
2017-01-01T08:08:20.000  -2.267993864559923e+04   3.556796356788631e+04   3.197480076904080e-01  -2.592710164845504e+00  -1.650144864323395e+00   4.759582511080196e-05
2017-01-01T08:08:30.000  -2.270585972277067e+04   3.555145267743839e+04   3.202240739067207e-01  -2.591505141646723e+00  -1.652033142876448e+00   4.761741544373888e-05
2017-01-01T08:08:40.000  -2.273176874310912e+04   3.553492290843730e+04   3.207003558943008e-01  -2.590298744484492e+00  -1.653920540646781e+00   4.763897837295264e-05
2017-01-01T08:08:50.000  -2.275766569284917e+04   3.551837426971343e+04   3.211768533784506e-01  -2.589090974004970e+00  -1.655807056634607e+00   4.766051386982262e-05
2017-01-01T08:09:00.000  -2.278355055825032e+04   3.550180677009590e+04   3.216535660845167e-01  -2.587881830854218e+00  -1.657692689841957e+00   4.768202190576124e-05
2017-01-01T08:09:10.000  -2.280942332551787e+04   3.548522041846210e+04   3.221304937364513e-01  -2.586671315681814e+00  -1.659577439266916e+00   4.770350245214846e-05
2017-01-01T08:09:20.000  -2.283528398083427e+04   3.546861522371972e+04   3.226076360573558e-01  -2.585459429139535e+00  -1.661461303905911e+00   4.772495548035962e-05
2017-01-01T08:09:30.000  -2.286113251037294e+04   3.545199119479617e+04   3.230849927697626e-01  -2.584246171880599e+00  -1.663344282754711e+00   4.774638096177419e-05
2017-01-01T08:09:40.000  -2.288696890032922e+04   3.543534834061890e+04   3.235625635962049e-01  -2.583031544558218e+00  -1.665226374810689e+00   4.776777886780316e-05
2017-01-01T08:09:50.000  -2.291279313693548e+04   3.541868667010701e+04   3.240403482594721e-01  -2.581815547824986e+00  -1.667107579073920e+00   4.778914916989466e-05
2017-01-01T08:10:00.000  -2.293860520649080e+04   3.540200619215045e+04   3.245183464831874e-01  -2.580598182331363e+00  -1.668987894549337e+00   4.781049183956596e-05
2017-01-01T08:10:10.000  -2.296440509528279e+04   3.538530691566109e+04   3.249965579903498e-01  -2.579379448729402e+00  -1.670867320241046e+00   4.783180684833586e-05
2017-01-01T08:10:20.000  -2.299019278992639e+04   3.536858884935092e+04   3.254749825096571e-01  -2.578159347656570e+00  -1.672745855177002e+00   4.785309416801544e-05
2017-01-01T08:10:30.000  -2.301596827695318e+04   3.535185200200050e+04   3.259536197678478e-01  -2.576937879755322e+00  -1.674623498379088e+00   4.787435377035753e-05
2017-01-01T08:10:40.000  -2.304173154296665e+04   3.533509638235766e+04   3.264324694925945e-01  -2.575715045665725e+00  -1.676500248874430e+00   4.789558562718948e-05
2017-01-01T08:10:50.000  -2.306748257403983e+04   3.531832199952916e+04   3.269115314013096e-01  -2.574490846054029e+00  -1.678376105651516e+00   4.791678970990232e-05
2017-01-01T08:11:00.000  -2.309322135631782e+04   3.530152886258920e+04   3.273908052123371e-01  -2.573265281584105e+00  -1.680251067704088e+00   4.793796598996183e-05
2017-01-01T08:11:10.000  -2.311894787586216e+04   3.528471698068020e+04   3.278702906420660e-01  -2.572038352924798e+00  -1.682125134019808e+00   4.795911443877499e-05
2017-01-01T08:11:20.000  -2.314466211906302e+04   3.526788636274663e+04   3.283499874125641e-01  -2.570810060730496e+00  -1.683998303610273e+00   4.798023502804485e-05
2017-01-01T08:11:30.000  -2.317036407229884e+04   3.525103701775429e+04   3.288298952452823e-01  -2.569580405657138e+00  -1.685870575486236e+00   4.800132772947473e-05
2017-01-01T08:11:40.000  -2.319605372201481e+04   3.523416895463983e+04   3.293100138625056e-01  -2.568349388358533e+00  -1.687741948663317e+00   4.802239251483841e-05
2017-01-01T08:11:50.000  -2.322173105469185e+04   3.521728218232927e+04   3.297903429868044e-01  -2.567117009487703e+00  -1.689612422159734e+00   4.804342935593931e-05
2017-01-01T08:12:00.000  -2.324739605683280e+04   3.520037670974846e+04   3.302708823407524e-01  -2.565883269697656e+00  -1.691481994995314e+00   4.806443822461434e-05
2017-01-01T08:12:10.000  -2.327304871493181e+04   3.518345254584331e+04   3.307516316463528e-01  -2.564648169642855e+00  -1.693350666189252e+00   4.808541909270361e-05
2017-01-01T08:12:20.000  -2.329868901545923e+04   3.516650969958823e+04   3.312325906247817e-01  -2.563411709979833e+00  -1.695218434759012e+00   4.810637193205074e-05
2017-01-01T08:12:30.000  -2.332431694483231e+04   3.514954818000723e+04   3.317137589958067e-01  -2.562173891368746e+00  -1.697085299718192e+00   4.812729671446668e-05
2017-01-01T08:12:40.000  -2.334993248949268e+04   3.513256799612202e+04   3.321951364792551e-01  -2.560934714469567e+00  -1.698951260082173e+00   4.814819341179727e-05
2017-01-01T08:12:50.000  -2.337553563557006e+04   3.511556915717749e+04   3.326767227886511e-01  -2.559694179958555e+00  -1.700816314843620e+00   4.816906199563702e-05
2017-01-01T08:13:00.000  -2.340112636929015e+04   3.509855167236877e+04   3.331585176389222e-01  -2.558452288508324e+00  -1.702680463002186e+00   4.818990243767386e-05
2017-01-01T08:13:10.000  -2.342670467682272e+04   3.508151555094248e+04   3.336405207435358e-01  -2.557209040795252e+00  -1.704543703553461e+00   4.821071470956079e-05
2017-01-01T08:13:20.000  -2.345227054487021e+04   3.506446080180522e+04   3.341227318255846e-01  -2.555964437470884e+00  -1.706406035531835e+00   4.823149878340867e-05
2017-01-01T08:13:30.000  -2.347782396008058e+04   3.504738743391386e+04   3.346051506067308e-01  -2.554718479190433e+00  -1.708267457967738e+00   4.825225463129437e-05
2017-01-01T08:13:40.000  -2.350336490918059e+04   3.503029545618752e+04   3.350877768097093e-01  -2.553471166606351e+00  -1.710127969897341e+00   4.827298222537464e-05
2017-01-01T08:13:50.000  -2.352889337864328e+04   3.501318487772634e+04   3.355706101521043e-01  -2.552222500384293e+00  -1.711987570338336e+00   4.829368153760021e-05
2017-01-01T08:14:00.000  -2.355440935493537e+04   3.499605570764976e+04   3.360536503509610e-01  -2.550972481191317e+00  -1.713846258307960e+00   4.831435253993257e-05
2017-01-01T08:14:10.000  -2.357991282451653e+04   3.497890795509543e+04   3.365368971227976e-01  -2.549721109695804e+00  -1.715704032822939e+00   4.833499520433774e-05
2017-01-01T08:14:20.000  -2.360540377359584e+04   3.496174162938668e+04   3.370203501789317e-01  -2.548468386579676e+00  -1.717560892881747e+00   4.835560950260443e-05
2017-01-01T08:14:30.000  -2.363088218846054e+04   3.494455673980799e+04   3.375040092317641e-01  -2.547214312522013e+00  -1.719416837488560e+00   4.837619540659505e-05
2017-01-01T08:14:40.000  -2.365634805534629e+04   3.492735329569306e+04   3.379878739923077e-01  -2.545958888205487e+00  -1.721271865643795e+00   4.839675288814551e-05
2017-01-01T08:14:50.000  -2.368180136101200e+04   3.491013130603680e+04   3.384719441811054e-01  -2.544702114288032e+00  -1.723125976385989e+00   4.841728191951832e-05
